{
  "type": "FeatureCollection",
  "features": [
    {
      "type": "Feature",
      "properties": {
        "norad_id": 66920,
        "name": "HULIANWANG DIGUI-110",
        "group": "last-30-days",
        "lat": -42.71335090454597,
        "lon": -40.714380990580864,
        "alt_km": 883.9505611542545,
        "timestamp": "2025-12-19T18:58:40.329508+00:00",
        "meta_object_name": "HULIANWANG DIGUI-110",
        "meta_object_id": "2025-285F",
        "meta_epoch": "2025-12-19T07:34:33.504384",
        "meta_mean_motion": 14.03681957,
        "meta_eccentricity": 0.00055754,
        "meta_inclination": 50.0114,
        "meta_ra_of_asc_node": 90.4305,
        "meta_arg_of_pericenter": 311.5475,
        "meta_mean_anomaly": 48.495,
        "meta_ephemeris_type": 0,
        "meta_classification_type": "U",
        "meta_norad_cat_id": 66920,
        "meta_element_set_no": 999,
        "meta_rev_at_epoch": 183,
        "meta_bstar": 0.00010146521,
        "meta_mean_motion_dot": 9e-08,
        "meta_mean_motion_ddot": 0,
        "tle_line1": "1 66920U 25285F   25353.31566556  .00000009  00000+0  10147-3 0  9994",
        "tle_line2": "2 66920  50.0114  90.4305 0005575 311.5475  48.4950 14.03681957  1831"
      },
      "geometry": {
        "type": "Point",
        "coordinates": [
          -40.714380990580864,
          -42.71335090454597
        ]
      }
    },
    {
      "type": "Feature",
      "properties": {
        "norad_id": 66921,
        "name": "HULIANWANG DIGUI-111",
        "group": "last-30-days",
        "lat": -44.81989209169607,
        "lon": -34.99618660254268,
        "alt_km": 883.898647422995,
        "timestamp": "2025-12-19T18:58:40.329517+00:00",
        "meta_object_name": "HULIANWANG DIGUI-111",
        "meta_object_id": "2025-285G",
        "meta_epoch": "2025-12-19T07:33:12.361824",
        "meta_mean_motion": 14.03631195,
        "meta_eccentricity": 0.00066389,
        "meta_inclination": 50.0116,
        "meta_ra_of_asc_node": 90.4283,
        "meta_arg_of_pericenter": 315.416,
        "meta_mean_anomaly": 44.621,
        "meta_ephemeris_type": 0,
        "meta_classification_type": "U",
        "meta_norad_cat_id": 66921,
        "meta_element_set_no": 999,
        "meta_rev_at_epoch": 183,
        "meta_bstar": -1.712399e-05,
        "meta_mean_motion_dot": -1.78e-06,
        "meta_mean_motion_ddot": 0,
        "tle_line1": "1 66921U 25285G   25353.31472641 -.00000178  00000+0 -17124-4 0  9998",
        "tle_line2": "2 66921  50.0116  90.4283 0006638 315.4160  44.6210 14.03631195  1830"
      },
      "geometry": {
        "type": "Point",
        "coordinates": [
          -34.99618660254268,
          -44.81989209169607
        ]
      }
    },
    {
      "type": "Feature",
      "properties": {
        "norad_id": 66922,
        "name": "HULIANWANG DIGUI-112",
        "group": "last-30-days",
        "lat": -46.75385301016077,
        "lon": -28.35162320076057,
        "alt_km": 884.3437621890707,
        "timestamp": "2025-12-19T18:58:40.329527+00:00",
        "meta_object_name": "HULIANWANG DIGUI-112",
        "meta_object_id": "2025-285H",
        "meta_epoch": "2025-12-19T07:31:47.378784",
        "meta_mean_motion": 14.0366113,
        "meta_eccentricity": 0.00064791,
        "meta_inclination": 50.009,
        "meta_ra_of_asc_node": 90.4167,
        "meta_arg_of_pericenter": 326.0026,
        "meta_mean_anomaly": 34.0463,
        "meta_ephemeris_type": 0,
        "meta_classification_type": "U",
        "meta_norad_cat_id": 66922,
        "meta_element_set_no": 999,
        "meta_rev_at_epoch": 183,
        "meta_bstar": -2.61365e-06,
        "meta_mean_motion_dot": -1.56e-06,
        "meta_mean_motion_ddot": 0,
        "tle_line1": "1 66922U 25285H   25353.31374281 -.00000156  00000+0 -26136-5 0  9990",
        "tle_line2": "2 66922  50.0090  90.4167 0006479 326.0026  34.0463 14.03661130  1830"
      },
      "geometry": {
        "type": "Point",
        "coordinates": [
          -28.35162320076057,
          -46.75385301016077
        ]
      }
    },
    {
      "type": "Feature",
      "properties": {
        "norad_id": 66923,
        "name": "HULIANWANG DIGUI-113",
        "group": "last-30-days",
        "lat": -48.41040829944433,
        "lon": -20.49458472228581,
        "alt_km": 883.8739849774465,
        "timestamp": "2025-12-19T18:58:40.329537+00:00",
        "meta_object_name": "HULIANWANG DIGUI-113",
        "meta_object_id": "2025-285J",
        "meta_epoch": "2025-12-19T07:30:13.849056",
        "meta_mean_motion": 14.03699473,
        "meta_eccentricity": 0.00050553,
        "meta_inclination": 50.0087,
        "meta_ra_of_asc_node": 90.4123,
        "meta_arg_of_pericenter": 320.716,
        "meta_mean_anomaly": 39.3377,
        "meta_ephemeris_type": 0,
        "meta_classification_type": "U",
        "meta_norad_cat_id": 66923,
        "meta_element_set_no": 999,
        "meta_rev_at_epoch": 183,
        "meta_bstar": 0.0001958702,
        "meta_mean_motion_dot": 1.58e-06,
        "meta_mean_motion_ddot": 0,
        "tle_line1": "1 66923U 25285J   25353.31266029  .00000158  00000+0  19587-3 0  9991",
        "tle_line2": "2 66923  50.0087  90.4123 0005055 320.7160  39.3377 14.03699473  1831"
      },
      "geometry": {
        "type": "Point",
        "coordinates": [
          -20.49458472228581,
          -48.41040829944433
        ]
      }
    },
    {
      "type": "Feature",
      "properties": {
        "norad_id": 66924,
        "name": "CZ-8A R/B",
        "group": "last-30-days",
        "lat": 15.659884325667422,
        "lon": 99.7496927905675,
        "alt_km": 817.9161966868087,
        "timestamp": "2025-12-19T18:58:40.329547+00:00",
        "meta_object_name": "CZ-8A R/B",
        "meta_object_id": "2025-285K",
        "meta_epoch": "2025-12-19T07:08:40.835040",
        "meta_mean_motion": 14.30504184,
        "meta_eccentricity": 0.01192678,
        "meta_inclination": 50.0074,
        "meta_ra_of_asc_node": 88.2389,
        "meta_arg_of_pericenter": 129.8656,
        "meta_mean_anomaly": 231.2822,
        "meta_ephemeris_type": 0,
        "meta_classification_type": "U",
        "meta_norad_cat_id": 66924,
        "meta_element_set_no": 999,
        "meta_rev_at_epoch": 186,
        "meta_bstar": 4.7291234e-05,
        "meta_mean_motion_dot": -3.3e-07,
        "meta_mean_motion_ddot": 0,
        "tle_line1": "1 66924U 25285K   25353.29769485 -.00000033  00000+0  47291-4 0  9990",
        "tle_line2": "2 66924  50.0074  88.2389 0119267 129.8656 231.2822 14.30504184  1861"
      },
      "geometry": {
        "type": "Point",
        "coordinates": [
          99.7496927905675,
          15.659884325667422
        ]
      }
    },
    {
      "type": "Feature",
      "properties": {
        "norad_id": 66925,
        "name": "STARLINK-35945",
        "group": "last-30-days",
        "lat": 32.02651641718046,
        "lon": 167.05547903178442,
        "alt_km": 328.1642287729592,
        "timestamp": "2025-12-19T18:58:40.329560+00:00",
        "meta_object_name": "STARLINK-35945",
        "meta_object_id": "2025-286A",
        "meta_epoch": "2025-12-19T06:00:02.000160",
        "meta_mean_motion": 15.80819715,
        "meta_eccentricity": 8.055e-05,
        "meta_inclination": 53.1565,
        "meta_ra_of_asc_node": 17.7343,
        "meta_arg_of_pericenter": 79.3855,
        "meta_mean_anomaly": 221.5287,
        "meta_ephemeris_type": 0,
        "meta_classification_type": "U",
        "meta_norad_cat_id": 66925,
        "meta_element_set_no": 999,
        "meta_rev_at_epoch": 303,
        "meta_bstar": -0.0075503395,
        "meta_mean_motion_dot": -0.01306897,
        "meta_mean_motion_ddot": 0,
        "tle_line1": "1 66925U 25286A   25353.25002315 -.01306897  00000+0 -75503-2 0  9994",
        "tle_line2": "2 66925  53.1565  17.7343 0000805  79.3855 221.5287 15.80819715  3038"
      },
      "geometry": {
        "type": "Point",
        "coordinates": [
          167.05547903178442,
          32.02651641718046
        ]
      }
    },
    {
      "type": "Feature",
      "properties": {
        "norad_id": 66926,
        "name": "STARLINK-35942",
        "group": "last-30-days",
        "lat": 28.80901631117663,
        "lon": 170.66241776953783,
        "alt_km": 328.8267861609547,
        "timestamp": "2025-12-19T18:58:40.329570+00:00",
        "meta_object_name": "STARLINK-35942",
        "meta_object_id": "2025-286B",
        "meta_epoch": "2025-12-19T06:00:02.000160",
        "meta_mean_motion": 15.80785673,
        "meta_eccentricity": 8.325e-05,
        "meta_inclination": 53.1561,
        "meta_ra_of_asc_node": 17.7244,
        "meta_arg_of_pericenter": 84.5862,
        "meta_mean_anomaly": 220.8911,
        "meta_ephemeris_type": 0,
        "meta_classification_type": "U",
        "meta_norad_cat_id": 66926,
        "meta_element_set_no": 999,
        "meta_rev_at_epoch": 303,
        "meta_bstar": -0.0076726728,
        "meta_mean_motion_dot": -0.01323599,
        "meta_mean_motion_ddot": 0,
        "tle_line1": "1 66926U 25286B   25353.25002315 -.01323599  00000+0 -76727-2 0  9992",
        "tle_line2": "2 66926  53.1561  17.7244 0000832  84.5862 220.8911 15.80785673  3032"
      },
      "geometry": {
        "type": "Point",
        "coordinates": [
          170.66241776953783,
          28.80901631117663
        ]
      }
    }
  ]
}